{
  "type": "FeatureCollection",
  "features": [
    {
      "type": "Feature",
      "properties": {
        "norad_id": 35834,
        "name": "COSMOS 2251 DEB",
        "group": "cosmos-2251-debris",
        "lat": 43.463012499204474,
        "lon": 122.78972474118082,
        "alt_km": 768.4886463307712,
        "timestamp": "2025-12-04T19:33:59.995789+00:00",
        "meta_object_name": "COSMOS 2251 DEB",
        "meta_object_id": "1993-036ATG",
        "meta_epoch": "2025-12-04T05:26:40.982208",
        "meta_mean_motion": 14.12967901,
        "meta_eccentricity": 0.01091056,
        "meta_inclination": 73.9304,
        "meta_ra_of_asc_node": 319.69,
        "meta_arg_of_pericenter": 121.8785,
        "meta_mean_anomaly": 260.1307,
        "meta_ephemeris_type": 0,
        "meta_classification_type": "U",
        "meta_norad_cat_id": 35834,
        "meta_element_set_no": 999,
        "meta_rev_at_epoch": 66143,
        "meta_bstar": 0.00027149223,
        "meta_mean_motion_dot": 5.11e-06,
        "meta_mean_motion_ddot": 0,
        "tle_line1": "1 35834U 93036ATG 25338.22686322  .00000511  00000+0  27149-3 0  9998",
        "tle_line2": "2 35834  73.9304 319.6900 0109105 121.8785 260.1307 14.12967901661436"
      },
      "geometry": {
        "type": "Point",
        "coordinates": [
          122.78972474118082,
          43.463012499204474
        ]
      }
    },
    {
      "type": "Feature",
      "properties": {
        "norad_id": 35835,
        "name": "COSMOS 2251 DEB",
        "group": "cosmos-2251-debris",
        "lat": -28.91267055010022,
        "lon": 110.84431699335764,
        "alt_km": 1130.1213335489338,
        "timestamp": "2025-12-04T19:33:59.995798+00:00",
        "meta_object_name": "COSMOS 2251 DEB",
        "meta_object_id": "1993-036ATH",
        "meta_epoch": "2025-11-23T15:11:23.439552",
        "meta_mean_motion": 13.82767918,
        "meta_eccentricity": 0.02888493,
        "meta_inclination": 74.0623,
        "meta_ra_of_asc_node": 300.5555,
        "meta_arg_of_pericenter": 86.7647,
        "meta_mean_anomaly": 276.6477,
        "meta_ephemeris_type": 0,
        "meta_classification_type": "U",
        "meta_norad_cat_id": 35835,
        "meta_element_set_no": 999,
        "meta_rev_at_epoch": 61435,
        "meta_bstar": 0.00097699609,
        "meta_mean_motion_dot": 1.444e-05,
        "meta_mean_motion_ddot": 0,
        "tle_line1": "1 35835U 93036ATH 25327.63291018  .00001444  00000+0  97700-3 0  9992",
        "tle_line2": "2 35835  74.0623 300.5555 0288849  86.7647 276.6477 13.82767918614358"
      },
      "geometry": {
        "type": "Point",
        "coordinates": [
          110.84431699335764,
          -28.91267055010022
        ]
      }
    },
    {
      "type": "Feature",
      "properties": {
        "norad_id": 35836,
        "name": "COSMOS 2251 DEB",
        "group": "cosmos-2251-debris",
        "lat": 70.43260026412241,
        "lon": -118.0101488151579,
        "alt_km": 669.0147546265562,
        "timestamp": "2025-12-04T19:33:59.995807+00:00",
        "meta_object_name": "COSMOS 2251 DEB",
        "meta_object_id": "1993-036ATJ",
        "meta_epoch": "2025-12-03T07:17:31.835616",
        "meta_mean_motion": 14.70639126,
        "meta_eccentricity": 0.0025001,
        "meta_inclination": 74.0317,
        "meta_ra_of_asc_node": 191.2565,
        "meta_arg_of_pericenter": 251.0331,
        "meta_mean_anomaly": 108.8131,
        "meta_ephemeris_type": 0,
        "meta_classification_type": "U",
        "meta_norad_cat_id": 35836,
        "meta_element_set_no": 999,
        "meta_rev_at_epoch": 63381,
        "meta_bstar": 0.0020272,
        "meta_mean_motion_dot": 0.00012386,
        "meta_mean_motion_ddot": 0,
        "tle_line1": "1 35836U 93036ATJ 25337.30384069  .00012386  00000+0  20272-2 0  9993",
        "tle_line2": "2 35836  74.0317 191.2565 0025001 251.0331 108.8131 14.70639126633813"
      },
      "geometry": {
        "type": "Point",
        "coordinates": [
          -118.0101488151579,
          70.43260026412241
        ]
      }
    },
    {
      "type": "Feature",
      "properties": {
        "norad_id": 35837,
        "name": "COSMOS 2251 DEB",
        "group": "cosmos-2251-debris",
        "lat": -7.494348179973082,
        "lon": 43.012287054366695,
        "alt_km": 798.8399776650976,
        "timestamp": "2025-12-04T19:33:59.995816+00:00",
        "meta_object_name": "COSMOS 2251 DEB",
        "meta_object_id": "1993-036ATK",
        "meta_epoch": "2025-12-04T01:24:29.156256",
        "meta_mean_motion": 13.63390826,
        "meta_eccentricity": 0.04220999,
        "meta_inclination": 73.7219,
        "meta_ra_of_asc_node": 222.0677,
        "meta_arg_of_pericenter": 144.2331,
        "meta_mean_anomaly": 287.9035,
        "meta_ephemeris_type": 0,
        "meta_classification_type": "U",
        "meta_norad_cat_id": 35837,
        "meta_element_set_no": 999,
        "meta_rev_at_epoch": 57858,
        "meta_bstar": 0.0026672111,
        "meta_mean_motion_dot": 3.824e-05,
        "meta_mean_motion_ddot": 0,
        "tle_line1": "1 35837U 93036ATK 25338.05867079  .00003824  00000+0  26672-2 0  9991",
        "tle_line2": "2 35837  73.7219 222.0677 0422099 144.2331 287.9035 13.63390826578585"
      },
      "geometry": {
        "type": "Point",
        "coordinates": [
          43.012287054366695,
          -7.494348179973082
        ]
      }
    },
    {
      "type": "Feature",
      "properties": {
        "norad_id": 35839,
        "name": "COSMOS 2251 DEB",
        "group": "cosmos-2251-debris",
        "lat": -47.83045489459098,
        "lon": -37.49495476636719,
        "alt_km": 433.08703214570505,
        "timestamp": "2025-12-04T19:33:59.995825+00:00",
        "meta_object_name": "COSMOS 2251 DEB",
        "meta_object_id": "1993-036ATM",
        "meta_epoch": "2025-12-02T18:04:00.314688",
        "meta_mean_motion": 15.45031153,
        "meta_eccentricity": 0.0004071,
        "meta_inclination": 74.215,
        "meta_ra_of_asc_node": 345.1465,
        "meta_arg_of_pericenter": 349.5687,
        "meta_mean_anomaly": 10.544,
        "meta_ephemeris_type": 0,
        "meta_classification_type": "U",
        "meta_norad_cat_id": 35839,
        "meta_element_set_no": 999,
        "meta_rev_at_epoch": 88413,
        "meta_bstar": 0.004021,
        "meta_mean_motion_dot": 0.00194741,
        "meta_mean_motion_ddot": 0,
        "tle_line1": "1 35839U 93036ATM 25336.75278142  .00194741  00000+0  40210-2 0  9998",
        "tle_line2": "2 35839  74.2150 345.1465 0004071 349.5687  10.5440 15.45031153884137"
      },
      "geometry": {
        "type": "Point",
        "coordinates": [
          -37.49495476636719,
          -47.83045489459098
        ]
      }
    },
    {
      "type": "Feature",
      "properties": {
        "norad_id": 35840,
        "name": "COSMOS 2251 DEB",
        "group": "cosmos-2251-debris",
        "lat": 27.007751033514094,
        "lon": -178.68617481188747,
        "alt_km": 709.7635560536419,
        "timestamp": "2025-12-04T19:33:59.995834+00:00",
        "meta_object_name": "COSMOS 2251 DEB",
        "meta_object_id": "1993-036ATN",
        "meta_epoch": "2025-12-03T06:41:48.528096",
        "meta_mean_motion": 14.37668767,
        "meta_eccentricity": 0.0116177,
        "meta_inclination": 73.9299,
        "meta_ra_of_asc_node": 175.711,
        "meta_arg_of_pericenter": 80.5155,
        "meta_mean_anomaly": 280.9106,
        "meta_ephemeris_type": 0,
        "meta_classification_type": "U",
        "meta_norad_cat_id": 35840,
        "meta_element_set_no": 999,
        "meta_rev_at_epoch": 85155,
        "meta_bstar": 0.0020521,
        "meta_mean_motion_dot": 6.645e-05,
        "meta_mean_motion_ddot": 0,
        "tle_line1": "1 35840U 93036ATN 25337.27903389  .00006645  00000+0  20521-2 0  9994",
        "tle_line2": "2 35840  73.9299 175.7110 0116177  80.5155 280.9106 14.37668767851555"
      },
      "geometry": {
        "type": "Point",
        "coordinates": [
          -178.68617481188747,
          27.007751033514094
        ]
      }
    },
    {
      "type": "Feature",
      "properties": {
        "norad_id": 35883,
        "name": "COSMOS 2251 DEB",
        "group": "cosmos-2251-debris",
        "lat": 23.010838973148992,
        "lon": 91.92608696393053,
        "alt_km": 781.583039613497,
        "timestamp": "2025-12-04T19:33:59.995844+00:00",
        "meta_object_name": "COSMOS 2251 DEB",
        "meta_object_id": "1993-036ATW",
        "meta_epoch": "2025-11-29T02:53:29.744160",
        "meta_mean_motion": 14.50541303,
        "meta_eccentricity": 0.00841977,
        "meta_inclination": 74.0237,
        "meta_ra_of_asc_node": 95.6459,
        "meta_arg_of_pericenter": 227.8885,
        "meta_mean_anomaly": 309.997,
        "meta_ephemeris_type": 0,
        "meta_classification_type": "U",
        "meta_norad_cat_id": 35883,
        "meta_element_set_no": 999,
        "meta_rev_at_epoch": 62188,
        "meta_bstar": 0.00041574036,
        "meta_mean_motion_dot": 1.674e-05,
        "meta_mean_motion_ddot": 0,
        "tle_line1": "1 35883U 93036ATW 25333.12048315  .00001674  00000+0  41574-3 0  9999",
        "tle_line2": "2 35883  74.0237  95.6459 0084197 227.8885 309.9970 14.50541303621887"
      },
      "geometry": {
        "type": "Point",
        "coordinates": [
          91.92608696393053,
          23.010838973148992
        ]
      }
    }
  ]
}